[{"OBJECT_NAME":"FLOCK 4H-29","OBJECT_ID":"2025-276BU","EPOCH":"2026-04-27T04:28:25.832640","MEAN_MOTION":15.19142552,"ECCENTRICITY":0.00034502,"INCLINATION":97.4189,"RA_OF_ASC_NODE":191.4892,"ARG_OF_PERICENTER":173.7085,"MEAN_ANOMALY":186.4193,"EPHEMERIS_TYPE":0,"CLASSIFICATION_TYPE":"U","NORAD_CAT_ID":66732,"ELEMENT_SET_NO":999,"REV_AT_EPOCH":2267,"BSTAR":0.00034715681,"MEAN_MOTION_DOT":7.229e-5,"MEAN_MOTION_DDOT":0},{"OBJECT_NAME":"FLOCK 4H-30","OBJECT_ID":"2025-276BV","EPOCH":"2026-04-27T05:59:35.358720","MEAN_MOTION":15.19223395,"ECCENTRICITY":0.00046857,"INCLINATION":97.425,"RA_OF_ASC_NODE":191.6824,"ARG_OF_PERICENTER":168.7045,"MEAN_ANOMALY":191.4296,"EPHEMERIS_TYPE":0,"CLASSIFICATION_TYPE":"U","NORAD_CAT_ID":66733,"ELEMENT_SET_NO":999,"REV_AT_EPOCH":2268,"BSTAR":0.00036758612,"MEAN_MOTION_DOT":7.678e-5,"MEAN_MOTION_DDOT":0},{"OBJECT_NAME":"FLOCK 4H-31","OBJECT_ID":"2025-276BW","EPOCH":"2026-04-27T04:39:50.639904","MEAN_MOTION":15.19045245,"ECCENTRICITY":0.0003977,"INCLINATION":97.4186,"RA_OF_ASC_NODE":191.4771,"ARG_OF_PERICENTER":172.7361,"MEAN_ANOMALY":187.3932,"EPHEMERIS_TYPE":0,"CLASSIFICATION_TYPE":"U","NORAD_CAT_ID":66734,"ELEMENT_SET_NO":999,"REV_AT_EPOCH":2267,"BSTAR":0.00035491417,"MEAN_MOTION_DOT":7.372e-5,"MEAN_MOTION_DDOT":0},{"OBJECT_NAME":"FLOCK 4H-32","OBJECT_ID":"2025-276BX","EPOCH":"2026-04-27T04:31:03.399456","MEAN_MOTION":15.19145696,"ECCENTRICITY":0.00051284,"INCLINATION":97.4242,"RA_OF_ASC_NODE":191.5962,"ARG_OF_PERICENTER":167.2213,"MEAN_ANOMALY":192.9153,"EPHEMERIS_TYPE":0,"CLASSIFICATION_TYPE":"U","NORAD_CAT_ID":66735,"ELEMENT_SET_NO":999,"REV_AT_EPOCH":2267,"BSTAR":0.00035526294,"MEAN_MOTION_DOT":7.402e-5,"MEAN_MOTION_DDOT":0},{"OBJECT_NAME":"FLOCK 4H-33","OBJECT_ID":"2025-276BY","EPOCH":"2026-04-27T04:57:47.831904","MEAN_MOTION":15.20350037,"ECCENTRICITY":0.00038343,"INCLINATION":97.4238,"RA_OF_ASC_NODE":191.8718,"ARG_OF_PERICENTER":109.1233,"MEAN_ANOMALY":251.0418,"EPHEMERIS_TYPE":0,"CLASSIFICATION_TYPE":"U","NORAD_CAT_ID":66736,"ELEMENT_SET_NO":999,"REV_AT_EPOCH":2269,"BSTAR":0.00036279493,"MEAN_MOTION_DOT":7.829e-5,"MEAN_MOTION_DDOT":0},{"OBJECT_NAME":"FLOCK 4H-34","OBJECT_ID":"2025-276BZ","EPOCH":"2026-04-27T04:07:38.261568","MEAN_MOTION":15.19870311,"ECCENTRICITY":0.00040039,"INCLINATION":97.4253,"RA_OF_ASC_NODE":191.7943,"ARG_OF_PERICENTER":114.837,"MEAN_ANOMALY":245.3282,"EPHEMERIS_TYPE":0,"CLASSIFICATION_TYPE":"U","NORAD_CAT_ID":66737,"ELEMENT_SET_NO":999,"REV_AT_EPOCH":2193,"BSTAR":0.00037478371,"MEAN_MOTION_DOT":7.978e-5,"MEAN_MOTION_DDOT":0},{"OBJECT_NAME":"FLOCK 4H-35","OBJECT_ID":"2025-276CA","EPOCH":"2026-04-27T02:10:30.417312","MEAN_MOTION":15.2010118,"ECCENTRICITY":0.00035423,"INCLINATION":97.4213,"RA_OF_ASC_NODE":191.6741,"ARG_OF_PERICENTER":105.506,"MEAN_ANOMALY":254.6567,"EPHEMERIS_TYPE":0,"CLASSIFICATION_TYPE":"U","NORAD_CAT_ID":66738,"ELEMENT_SET_NO":999,"REV_AT_EPOCH":2196,"BSTAR":0.00032342628,"MEAN_MOTION_DOT":6.921e-5,"MEAN_MOTION_DDOT":0},{"OBJECT_NAME":"FLOCK 4H-36","OBJECT_ID":"2025-276CB","EPOCH":"2026-04-27T04:22:40.903968","MEAN_MOTION":15.19832127,"ECCENTRICITY":0.00040406,"INCLINATION":97.4262,"RA_OF_ASC_NODE":191.7982,"ARG_OF_PERICENTER":123.3033,"MEAN_ANOMALY":236.8589,"EPHEMERIS_TYPE":0,"CLASSIFICATION_TYPE":"U","NORAD_CAT_ID":66739,"ELEMENT_SET_NO":999,"REV_AT_EPOCH":2268,"BSTAR":0.00034805329,"MEAN_MOTION_DOT":7.396e-5,"MEAN_MOTION_DDOT":0}]
